{"type": "FeatureCollection", "features": [ {"type": "Feature", "properties": {"norad_id": 37216, "name": "COSMO-SKYMED 4", "group": "resource", "lat": -45.36093097276183, "lon": -12.075115592620095, "alt_km": 630.0754588588843, "timestamp": "2025-12-20T18:51:31.374814+00:00", "meta": {"OBJECT_NAME": "COSMO-SKYMED 4", "OBJECT_ID": "2010-060A", "EPOCH": "2025-12-20T14:36:08.986176", "MEAN_MOTION": 14.82155254, "ECCENTRICITY": 0.00014277, "INCLINATION": 97.8799, "RA_OF_ASC_NODE": 175.8128, "ARG_OF_PERICENTER": 84.4405, "MEAN_ANOMALY": 275.6971, "EPHEMERIS_TYPE": 0, "CLASSIFICATION_TYPE": "U", "NORAD_CAT_ID": 37216, "ELEMENT_SET_NO": 999, "REV_AT_EPOCH": 81811, "BSTAR": 0.00012544434, "MEAN_MOTION_DOT": 9.47e-06, "MEAN_MOTION_DDOT": 0}, "tle": {"line1": "1 37216U 10060A   25354.60843734  .00000947  00000+0  12544-3 0  9998", "line2": "2 37216  97.8799 175.8128 0001427  84.4405 275.6971 14.82155254818114"}}, "geometry": {"type": "Point", "coordinates": [-12.075115592620095, -45.36093097276183]}}, {"type": "Feature", "properties": {"norad_id": 37387, "name": "RESOURCESAT-2", "group": "resource", "lat": -58.69830860239058, "lon": -136.43516441597032, "alt_km": 830.4268324600398, "timestamp": "2025-12-20T18:51:31.374825+00:00", "meta": {"OBJECT_NAME": "RESOURCESAT-2", "OBJECT_ID": "2011-015A", "EPOCH": "2025-12-20T10:58:38.511552", "MEAN_MOTION": 14.21600119, "ECCENTRICITY": 0.00060683, "INCLINATION": 98.7867, "RA_OF_ASC_NODE": 57.9742, "ARG_OF_PERICENTER": 21.8753, "MEAN_ANOMALY": 338.2682, "EPHEMERIS_TYPE": 0, "CLASSIFICATION_TYPE": "U", "NORAD_CAT_ID": 37387, "ELEMENT_SET_NO": 999, "REV_AT_EPOCH": 76078, "BSTAR": 6.714112e-05, "MEAN_MOTION_DOT": 1.03e-06, "MEAN_MOTION_DDOT": 0}, "tle": {"line1": "1 37387U 11015A   25354.45739018  .00000103  00000+0  67141-4 0  9998", "line2": "2 37387  98.7867  57.9742 0006068  21.8753 338.2682 14.21600119760780"}}, "geometry": {"type": "Point", "coordinates": [-136.43516441597032, -58.69830860239058]}}, {"type": "Feature", "properties": {"norad_id": 37781, "name": "HAIYANG-2A", "group": "resource", "lat": 48.07957133393081, "lon": -173.8458273277712, "alt_km": 963.0177431392858, "timestamp": "2025-12-20T18:51:31.374835+00:00", "meta": {"OBJECT_NAME": "HAIYANG-2A", "OBJECT_ID": "2011-043A", "EPOCH": "2025-12-20T13:00:04.384224", "MEAN_MOTION": 13.7883669, "ECCENTRICITY": 0.00016408, "INCLINATION": 99.337, "RA_OF_ASC_NODE": 355.356, "ARG_OF_PERICENTER": 72.1405, "MEAN_ANOMALY": 287.9926, "EPHEMERIS_TYPE": 0, "CLASSIFICATION_TYPE": "U", "NORAD_CAT_ID": 37781, "ELEMENT_SET_NO": 999, "REV_AT_EPOCH": 72206, "BSTAR": 0.00021597379, "MEAN_MOTION_DOT": 1.76e-06, "MEAN_MOTION_DDOT": 0}, "tle": {"line1": "1 37781U 11043A   25354.54171741  .00000176  00000+0  21597-3 0  9994", "line2": "2 37781  99.3370 355.3560 0001640  72.1405 287.9926 13.78836690722067"}}, "geometry": {"type": "Point", "coordinates": [-173.8458273277712, 48.07957133393081]}}, {"type": "Feature", "properties": {"norad_id": 37791, "name": "RASAT", "group": "resource", "lat": -55.82611147270079, "lon": 95.97977030761386, "alt_km": 676.6851103094887, "timestamp": "2025-12-20T18:51:31.374846+00:00", "meta": {"OBJECT_NAME": "RASAT", "OBJECT_ID": "2011-044D", "EPOCH": "2025-12-20T14:49:53.107392", "MEAN_MOTION": 14.67920253, "ECCENTRICITY": 0.00215536, "INCLINATION": 98.0653, "RA_OF_ASC_NODE": 83.7593, "ARG_OF_PERICENTER": 41.2858, "MEAN_ANOMALY": 96.1207, "EPHEMERIS_TYPE": 0, "CLASSIFICATION_TYPE": "U", "NORAD_CAT_ID": 37791, "ELEMENT_SET_NO": 999, "REV_AT_EPOCH": 76698, "BSTAR": 0.00011136624, "MEAN_MOTION_DOT": 5.9e-06, "MEAN_MOTION_DDOT": 0}, "tle": {"line1": "1 37791U 11044D   25354.61797578  .00000590  00000+0  11137-3 0  9995", "line2": "2 37791  98.0653  83.7593 0021553  41.2858  96.1207 14.67920253766989"}}, "geometry": {"type": "Point", "coordinates": [95.97977030761386, -55.82611147270079]}}, {"type": "Feature", "properties": {"norad_id": 37841, "name": "SRMSAT", "group": "resource", "lat": 2.8401960723592246, "lon": 67.10673761409456, "alt_km": 844.2874454891098, "timestamp": "2025-12-20T18:51:31.374856+00:00", "meta": {"OBJECT_NAME": "SRMSAT", "OBJECT_ID": "2011-058D", "EPOCH": "2025-12-20T12:38:09.085920", "MEAN_MOTION": 14.11513957, "ECCENTRICITY": 0.00119464, "INCLINATION": 19.9724, "RA_OF_ASC_NODE": 60.8238, "ARG_OF_PERICENTER": 39.0399, "MEAN_ANOMALY": 89.0233, "EPHEMERIS_TYPE": 0, "CLASSIFICATION_TYPE": "U", "NORAD_CAT_ID": 37841, "ELEMENT_SET_NO": 999, "REV_AT_EPOCH": 73254, "BSTAR": 6.676578e-05, "MEAN_MOTION_DOT": 3.88e-06, "MEAN_MOTION_DDOT": 0}, "tle": {"line1": "1 37841U 11058D   25354.52649405  .00000388  00000+0  66766-4 0  9995", "line2": "2 37841  19.9724  60.8238 0011946  39.0399  89.0233 14.11513957732541"}}, "geometry": {"type": "Point", "coordinates": [67.10673761409456, 2.8401960723592246]}}, {"type": "Feature", "properties": {"norad_id": 38012, "name": "PLEIADES 1A", "group": "resource", "lat": -8.43866734104544, "lon": -113.79237896517067, "alt_km": 702.1540853337565, "timestamp": "2025-12-20T18:51:31.374866+00:00", "meta": {"OBJECT_NAME": "PLEIADES 1A", "OBJECT_ID": "2011-076F", "EPOCH": "2025-12-20T15:29:02.693184", "MEAN_MOTION": 14.58569069, "ECCENTRICITY": 0.00011707, "INCLINATION": 98.1822, "RA_OF_ASC_NODE": 67.2923, "ARG_OF_PERICENTER": 74.4663, "MEAN_ANOMALY": 96.0444, "EPHEMERIS_TYPE": 0, "CLASSIFICATION_TYPE": "U", "NORAD_CAT_ID": 38012, "ELEMENT_SET_NO": 999, "REV_AT_EPOCH": 74596, "BSTAR": 0.00012921248, "MEAN_MOTION_DOT": 5.55e-06, "MEAN_MOTION_DDOT": 0}, "tle": {"line1": "1 38012U 11076F   25354.64517006  .00000555  00000+0  12921-3 0  9999", "line2": "2 38012  98.1822  67.2923 0001170  74.4663  96.0444 14.58569069745965"}}, "geometry": {"type": "Point", "coordinates": [-113.79237896517067, -8.43866734104544]}}, {"type": "Feature", "properties": {"norad_id": 38038, "name": "ZIYUAN 1-02C (ZY 1-02C)", "group": "resource", "lat": -41.58163218604121, "lon": -126.91220232803543, "alt_km": 772.9724159786019, "timestamp": "2025-12-20T18:51:31.374876+00:00", "meta": {"OBJECT_NAME": "ZIYUAN 1-02C (ZY 1-02C)", "OBJECT_ID": "2011-079A", "EPOCH": "2025-12-20T15:13:15.681792", "MEAN_MOTION": 14.38020995, "ECCENTRICITY": 0.00074495, "INCLINATION": 98.4331, "RA_OF_ASC_NODE": 60.5028, "ARG_OF_PERICENTER": 117.5487, "MEAN_ANOMALY": 40.2066, "EPHEMERIS_TYPE": 0, "CLASSIFICATION_TYPE": "U", "NORAD_CAT_ID": 38038, "ELEMENT_SET_NO": 999, "REV_AT_EPOCH": 73354, "BSTAR": 0.00019796363, "MEAN_MOTION_DOT": 5.56e-06, "MEAN_MOTION_DDOT": 0}, "tle": {"line1": "1 38038U 11079A   25354.63420928  .00000556  00000+0  19796-3 0  9993", "line2": "2 38038  98.4331  60.5028 0007449 117.5487  40.2066 14.38020995733541"}}, "geometry": {"type": "Point", "coordinates": [-126.91220232803543, -41.58163218604121]}}, {"type": "Feature", "properties": {"norad_id": 38338, "name": "ARIRANG-3 (KOMPSAT-3)", "group": "resource", "lat": 2.782642384753625, "lon": 129.84435775522942, "alt_km": 692.6154821508462, "timestamp": "2025-12-20T18:51:31.374886+00:00", "meta": {"OBJECT_NAME": "ARIRANG-3 (KOMPSAT-3)", "OBJECT_ID": "2012-025B", "EPOCH": "2025-12-20T14:45:54.309024", "MEAN_MOTION": 14.61722035, "ECCENTRICITY": 0.00048872, "INCLINATION": 98.3334, "RA_OF_ASC_NODE": 309.2643, "ARG_OF_PERICENTER": 311.2708, "MEAN_ANOMALY": 48.8071, "EPHEMERIS_TYPE": 0, "CLASSIFICATION_TYPE": "U", "NORAD_CAT_ID": 38338, "ELEMENT_SET_NO": 999, "REV_AT_EPOCH": 72525, "BSTAR": 8.4655137e-05, "MEAN_MOTION_DOT": 3.73e-06, "MEAN_MOTION_DDOT": 0}, "tle": {"line1": "1 38338U 12025B   25354.61521191  .00000373  00000+0  84655-4 0  9994", "line2": "2 38338  98.3334 309.2643 0004887 311.2708  48.8071 14.61722035725253"}}, "geometry": {"type": "Point", "coordinates": [129.84435775522942, 2.782642384753625]}}, {"type": "Feature", "properties": {"norad_id": 38709, "name": "EXACTVIEW-1 (ADS-1B)", "group": "resource", "lat": -10.504506252985882, "lon": -78.33254126623346, "alt_km": 818.6194070889424, "timestamp": "2025-12-20T18:51:31.374896+00:00", "meta": {"OBJECT_NAME": "EXACTVIEW-1 (ADS-1B)", "OBJECT_ID": "2012-039C", "EPOCH": "2025-12-20T12:54:39.554784", "MEAN_MOTION": 14.2491086, "ECCENTRICITY": 0.00102847, "INCLINATION": 98.9639, "RA_OF_ASC_NODE": 103.0916, "ARG_OF_PERICENTER": 331.1371, "MEAN_ANOMALY": 28.9238, "EPHEMERIS_TYPE": 0, "CLASSIFICATION_TYPE": "U", "NORAD_CAT_ID": 38709, "ELEMENT_SET_NO": 999, "REV_AT_EPOCH": 69726, "BSTAR": 6.1439079e-05, "MEAN_MOTION_DOT": 9.7e-07, "MEAN_MOTION_DDOT": 0}, "tle": {"line1": "1 38709U 12039C   25354.53795781  .00000097  00000+0  61439-4 0  9998", "line2": "2 38709  98.9639 103.0916 0010284 331.1371  28.9238 14.24910860697264"}}, "geometry": {"type": "Point", "coordinates": [-78.33254126623346, -10.504506252985882]}}, {"type": "Feature", "properties": {"norad_id": 38755, "name": "SPOT 6", "group": "resource", "lat": 66.4070242550211, "lon": -101.40519996416822, "alt_km": 690.6237926690264, "timestamp": "2025-12-20T18:51:31.374906+00:00", "meta": {"OBJECT_NAME": "SPOT 6", "OBJECT_ID": "2012-047A", "EPOCH": "2025-12-20T15:03:12.390336", "MEAN_MOTION": 14.58539265, "ECCENTRICITY": 0.00013518, "INCLINATION": 98.157, "RA_OF_ASC_NODE": 59.2669, "ARG_OF_PERICENTER": 78.2954, "MEAN_ANOMALY": 281.8397, "EPHEMERIS_TYPE": 0, "CLASSIFICATION_TYPE": "U", "NORAD_CAT_ID": 38755, "ELEMENT_SET_NO": 999, "REV_AT_EPOCH": 70702, "BSTAR": 9.4531818e-05, "MEAN_MOTION_DOT": 3.94e-06, "MEAN_MOTION_DDOT": 0}, "tle": {"line1": "1 38755U 12047A   25354.62722674  .00000394  00000+0  94532-4 0  9999", "line2": "2 38755  98.1570  59.2669 0001351  78.2954 281.8397 14.58539265707024"}}, "geometry": {"type": "Point", "coordinates": [-101.40519996416822, 66.4070242550211]}}]}